ATLAS CENTAUR R/B       
1 06155U 72065B   25353.89070623  .00000852  00000+0  12014-3 0  9995
2 06155  35.0023  53.3083 0033320  58.4171 301.9776 14.77426906829458
SL-8 R/B                
1 08459U 75112B   25353.23026618  .00000260  00000+0  94171-4 0  9991
2 08459  74.0589 166.9193 0016661 277.6121  82.3141 14.38149375620307
SL-3 R/B                
1 10114U 77057B   25354.14889443  .00009308  00000+0  21233-3 0  9996
2 10114  97.5682 157.7662 0006940 202.3473 157.7473 15.43111774656050
SEASAT 1                
1 10967U 78064A   25353.66913862  .00000194  00000+0  92948-4 0  9996
2 10967 108.0128 317.5720 0001450 252.5707 107.5280 14.46068428494944
SL-14 R/B               
1 11267U 79011B   25354.03223321  .00000435  00000+0  40582-4 0  9994
2 11267  82.5232 172.1277 0015269 328.4201  31.6101 14.91777670516903
SL-8 R/B                
1 11574U 79089B   25354.11934439  .00000201  00000+0  68883-4 0  9993
2 11574  74.0683 238.3213 0014593  69.6027 290.6695 14.42288210424630
SL-14 R/B               
1 11672U 80005B   25354.06012527  .00000428  00000+0  40816-4 0  9998
2 11672  82.5142  22.7564 0017289  71.2609 289.0485 14.90799473464620
SL-8 R/B                
1 12139U 81003B   25354.10736046  .00011051  00000+0  29188-3 0  9992
2 12139  82.9312   3.4231 0278639  94.9179 268.3920 15.07237960302678
SL-3 R/B                
1 12465U 81046B   25354.16813780  .00007681  00000+0  19228-3 0  9996
2 12465  81.2321  25.0510 0018360 297.4612  62.4762 15.39748573426189
SL-3 R/B                
1 12904U 81103B   25354.16329841  .00004578  00000+0  20917-3 0  9997
2 12904  81.1595 306.6583 0012264 185.8879 174.2209 15.20312337961142
SL-3 R/B                
1 13068U 82013B   25354.14252661  .00003679  00000+0  16279-3 0  9990
2 13068  81.1752 253.9444 0024213  87.1787 273.2216 15.21145622392258
SL-3 R/B                
1 13154U 82039B   25354.12956310  .00001914  00000+0  11662-3 0  9995
2 13154  81.1714 307.5949 0029435 227.1655 132.7097 15.09563979369636
